APRIZESAT 2             
1 28366U 04025A   26190.27208912  .00000160  00000+0  62531-4 0  9992
2 28366  98.1034 355.0043 0105526 182.7174 177.3454 14.38045813154818
SAUDICOMSAT 1           
1 28369U 04025D   26190.28985237  .00000237  00000+0  65511-4 0  9994
2 28369  98.5774 201.0180 0031239 317.5542  42.3238 14.55490937167347
SAUDICOMSAT 2           
1 28370U 04025E   26190.27618814  .00000139  00000+0  47915-4 0  9998
2 28370  98.6641 203.1469 0055225 191.6361 168.3560 14.49992506163308
APRIZESAT 1             
1 28372U 04025G   26190.00484296  .00000174  00000+0  54707-4 0  9992
2 28372  98.6306 201.3241 0045814  88.9946 271.6497 14.51789639165073
NANOSAT-1               
1 28493U 04049B   26190.20673592  .00000726  00000+0  10283-3 0  9996
2 28493  98.2302 327.4097 0003332 204.7546 155.3506 14.80203608158701
SAUDICOMSAT 7           
1 31119U 07012C   26189.88392793  .00000367  00000+0  74757-4 0  9999
2 31119  98.3792 164.4612 0056726 127.6525 232.9844 14.66132281 25613
SAUDICOMSAT 6           
1 31121U 07012E   26189.91403621  .00000285  00000+0  64576-4 0  9996
2 31121  98.4111 157.8367 0070377 259.0197 100.3082 14.62581004 23367
SAUDICOMSAT 5           
1 31124U 07012H   26189.89513926  .00000480  00000+0  91185-4 0  9999
2 31124  98.3503 165.2151 0048553  58.2421 302.3501 14.68186610 26787
SAUDICOMSAT 3           
1 31125U 07012J   26189.88600771  .00000570  00000+0  10124-3 0  9997
2 31125  98.3157 165.7526 0038713 345.4756  14.5334 14.70743212 28017
SAUDICOMSAT 4           
1 31127U 07012L   26190.15448996  .00000302  00000+0  65202-4 0  9991
2 31127  98.3998 163.1747 0063124 188.6139 171.3985 14.64532128 24504
APRIZESAT 4             
1 35684U 09041D   26190.17216482  .00000465  00000+0  62202-4 0  9999
2 35684  98.1405 265.9304 0041966 249.6048 110.0655 14.83908612914625
APRIZESAT 3             
1 35686U 09041F   26189.36472022  .00001101  00000+0  99795-4 0  9999
2 35686  98.2085 343.6064 0061311 358.3556   1.7453 14.96295907919545
S-NET D                 
1 43186U 18014G   26190.16639423  .00003404  00000+0  17626-3 0  9993
2 43186  97.5339  94.8202 0006559 310.9824  49.0841 15.16882692462092
S-NET B                 
1 43187U 18014H   26190.17827743  .00003073  00000+0  15958-3 0  9997
2 43187  97.5346  94.8194 0007124 304.9519  55.1044 15.16852830462098
S-NET A                 
1 43188U 18014J   26190.16515034  .00003399  00000+0  17592-3 0  9991
2 43188  97.5355  95.0194 0007023 305.7990  54.2590 15.16890948462090
S-NET C                 
1 43189U 18014K   26190.18226874  .00002993  00000+0  15551-3 0  9997
2 43189  97.5372  95.1143 0008227 295.6142  64.4240 15.16844308460641
SALSAT                  
1 46495U 20068K   26190.25177099  .00005482  00000+0  19084-3 0  9995
2 46495  97.8858 194.6644 0008593 215.0810 144.9864 15.30117525318739
OOV-CUBE (TUBSAT-30)    
1 60240U 24128F   26189.61355635  .00001358  00000+0  11477-3 0  9998
2 60240  61.9939 150.8549 0041932 138.4682 221.9608 15.02856535109338
LPNTSAT-001 (IOD-1)     
1 68408U 26065A   26190.08483324  .00001746  00000+0  87384-4 0  9996
2 68408  97.3994  70.1296 0014688 290.2392  69.7263 15.18649595 15583
